NORAD_CAT_ID,OBJECT_NAME,OBJECT_TYPE,EPOCH,MEAN_MOTION,ECCENTRICITY,INCLINATION,RA_OF_ASC_NODE,ARG_OF_PERICENTER,MEAN_ANOMALY,BSTAR,MEAN_MOTION_DOT,MEAN_MOTION_DDOT,TLE_LINE0,TLE_LINE1,TLE_LINE2,SEMIMAJOR_AXIS,PERIOD,APOGEE,PERIGEE,DECAYED
56450.0,STARLINK-5970,PAYLOAD,2023-10-01 21:42:04,14.98330583,0.0002912,70.0002,227.9668,270.1382,89.9443,-7.6967e-05,-1.011e-05,0.0,0 STARLINK-5970,1 56450U 23064C   23274.90421344 -.00001011  00000-0 -76967-4 0  9994,2 56450  70.0002 227.9668 0002912 270.1382  89.9443 14.98330583 21967,6950.191,96.107,574.08,570.032,0.0
56450.0,STARLINK-5970,PAYLOAD,2023-10-02 07:18:51,14.98342649,0.00028,70.0004,226.9567,270.8706,89.2132,6.6634e-05,7.02e-06,0.0,0 STARLINK-5970,1 56450U 23064C   23275.30476067  .00000702  00000-0  66634-4 0  9995,2 56450  70.0004 226.9567 0002800 270.8706  89.2132 14.98342649 22380,6950.154,96.106,573.965,570.073,0.0
56450.0,STARLINK-5970,PAYLOAD,2023-10-02 20:07:56,14.98327316,0.0002502,70.0013,225.6084,273.6934,86.3939,9.1917e-05,1.004e-05,0.0,0 STARLINK-5970,1 56450U 23064C   23275.83884836  .00001004  00000-0  91917-4 0  9998,2 56450  70.0013 225.6084 0002502 273.6934  86.3939 14.98327316 22469,6950.201,96.107,573.805,570.327,0.0
56450.0,STARLINK-5970,PAYLOAD,2023-10-03 04:08:37,14.98321834,0.0002475,70.001,224.7674,263.0149,97.0729,2.7747e-05,2.38e-06,0.0,0 STARLINK-5970,1 56450U 23064C   23276.17265386  .00000238  00000-0  27747-4 0  9997,2 56450  70.0010 224.7674 0002475 263.0149  97.0729 14.98321834 22512,6950.218,96.108,573.803,570.363,0.0
56450.0,STARLINK-5970,PAYLOAD,2023-10-03 13:45:25,14.98325077,0.0002753,70.0007,223.7583,270.8115,89.2729,-2.2601e-05,-3.63e-06,0.0,0 STARLINK-5970,1 56450U 23064C   23276.57321428 -.00000363  00000-0 -22601-4 0  9996,2 56450  70.0007 223.7583 0002753 270.8115  89.2729 14.98325077 22217,6950.208,96.107,573.987,570.16,0.0
56450.0,STARLINK-5970,PAYLOAD,2023-10-04 13:47:26,14.98336421,0.0002795,70.0005,221.2324,273.7416,86.3423,-0.00012515,-1.586e-05,0.0,0 STARLINK-5970,1 56450U 23064C   23277.57461084 -.00001586  00000-0 -12515-3 0  9990,2 56450  70.0005 221.2324 0002795 273.7416  86.3423 14.98336421 22363,6950.173,96.107,573.981,570.095,0.0
56450.0,STARLINK-5970,PAYLOAD,2023-10-04 21:48:06,14.98325989,0.0002944,70.0006,220.3907,273.5642,86.5181,7.4472e-05,7.96e-06,0.0,0 STARLINK-5970,1 56450U 23064C   23277.90841185  .00000796  00000-0  74472-4 0  9992,2 56450  70.0006 220.3907 0002944 273.5642  86.5181 14.98325989 22412,6950.205,96.107,574.116,570.024,0.0
56450.0,STARLINK-5970,PAYLOAD,2023-10-05 13:49:27,14.98325552,0.0002492,70.0023,218.7081,274.1179,85.9696,1.9593e-05,1.41e-06,0.0,0 STARLINK-5970,1 56450U 23064C   23278.57601483  .00000141  00000-0  19593-4 0  9998,2 56450  70.0023 218.7081 0002492 274.1179  85.9696 14.98325552 22516,6950.207,96.107,573.804,570.34,0.0
56450.0,STARLINK-5970,PAYLOAD,2023-10-05 20:14:00,14.98323046,0.0002807,70.002,218.0353,271.7976,88.2862,4.3518e-05,4.26e-06,0.0,0 STARLINK-5970,1 56450U 23064C   23278.84305559  .00000426  00000-0  43518-4 0  9993,2 56450  70.0020 218.0353 0002807 271.7976  88.2862 14.98323046 22917,6950.214,96.107,574.03,570.128,0.0
56450.0,STARLINK-5970,PAYLOAD,2023-10-05 21:50:08,14.98322741,0.0002826,70.0024,217.8664,271.2833,88.8002,4.69e-05,4.67e-06,0.0,0 STARLINK-5970,1 56450U 23064C   23278.90981526  .00000467  00000-0  46900-4 0  9997,2 56450  70.0024 217.8664 0002826 271.2833  88.8002 14.98322741 22565,6950.215,96.107,574.044,570.116,0.0
56450.0,STARLINK-5970,PAYLOAD,2023-10-06 07:26:55,14.98335843,0.0002827,70.001,216.8565,271.4591,88.6245,7.0928e-05,7.54e-06,0.0,0 STARLINK-5970,1 56450U 23064C   23279.31036695  .00000754  00000-0  70928-4 0  9997,2 56450  70.0010 216.8565 0002827 271.4591  88.6245 14.98335843 22983,6950.175,96.107,574.005,570.075,0.0
56450.0,STARLINK-5970,PAYLOAD,2023-10-06 13:51:28,14.98328447,0.0002629,70.0021,216.1828,273.718,86.3679,2.8182e-05,2.43e-06,0.0,0 STARLINK-5970,1 56450U 23064C   23279.57741281  .00000243  00000-0  28182-4 0  9997,2 56450  70.0021 216.1828 0002629 273.7180  86.3679 14.98328447 22662,6950.198,96.107,573.89,570.235,0.0
56450.0,STARLINK-5970,PAYLOAD,2023-10-06 21:52:08,14.98327457,0.0002679,70.0016,215.3412,272.8435,87.2417,1.5712e-05,9.5e-07,0.0,0 STARLINK-5970,1 56450U 23064C   23279.91121371  .00000095  00000-0  15712-4 0  9997,2 56450  70.0016 215.3412 0002679 272.8435  87.2417 14.98327457 22710,6950.201,96.107,573.928,570.204,0.0
56450.0,STARLINK-5970,PAYLOAD,2023-10-07 05:52:48,14.98336141,0.0003143,70.0005,214.4999,273.5301,86.5499,6.043e-05,6.28e-06,0.0,0 STARLINK-5970,1 56450U 23064C   23280.24500614  .00000628  00000-0  60430-4 0  9995,2 56450  70.0005 214.4999 0003143 273.5301  86.5499 14.98336141 23123,6950.174,96.107,574.223,569.854,0.0
56450.0,STARLINK-5970,PAYLOAD,2023-10-07 21:54:09,14.983259,0.0002634,70.0016,212.8178,270.7027,89.383,3.377e-05,3.1e-06,0.0,0 STARLINK-5970,1 56450U 23064C   23280.91261401  .00000310  00000-0  33770-4 0  9992,2 56450  70.0016 212.8178 0002634 270.7027  89.3830 14.98325900 22865,6950.206,96.107,573.901,570.24,0.0
56450.0,STARLINK-5970,PAYLOAD,2023-10-08 02:42:33,14.98331001,0.0002563,70.0005,212.3119,261.5355,98.5513,8.0373e-05,8.66e-06,0.0,0 STARLINK-5970,1 56450U 23064C   23281.11288919  .00000866  00000-0  80373-4 0  9995,2 56450  70.0005 212.3119 0002563 261.5355  98.5513 14.98331001 23259,6950.19,96.107,573.836,570.273,0.0
56450.0,STARLINK-5970,PAYLOAD,2023-10-08 05:54:53,14.98274089,0.0002731,70.0011,211.9763,256.9689,103.1165,-0.00059783,-7.208e-05,0.0,0 STARLINK-5970,1 56450U 23064C   23281.24645803 -.00007208  00000-0 -59783-3 0  9997,2 56450  70.0011 211.9763 0002731 256.9689 103.1165 14.98274089 23271,6950.366,96.111,574.129,570.333,0.0
56450.0,STARLINK-5970,PAYLOAD,2023-10-08 12:19:23,14.9831338,0.0002328,70.0011,211.3025,269.2035,90.8858,-5.8754e-05,-7.94e-06,0.0,0 STARLINK-5970,1 56450U 23064C   23281.51346402 -.00000794  00000-0 -58754-4 0  9991,2 56450  70.0011 211.3025 0002328 269.2035  90.8858 14.98313380 22953,6950.244,96.108,573.727,570.491,0.0
56450.0,STARLINK-5970,PAYLOAD,2023-10-08 18:43:54,14.98327261,0.000266,70.0007,210.6288,269.1854,90.9,1.7331e-05,1.14e-06,0.0,0 STARLINK-5970,1 56450U 23064C   23281.78049221  .00000114  00000-0  17331-4 0  9999,2 56450  70.0007 210.6288 0002660 269.1854  90.9000 14.98327261 23356,6950.201,96.107,573.915,570.218,0.0
56450.0,STARLINK-5970,PAYLOAD,2023-10-08 20:20:02,14.98326994,0.0002885,70.0002,210.4611,266.3638,93.7191,2.3405e-05,1.86e-06,0.0,0 STARLINK-5970,1 56450U 23064C   23281.84725160  .00000186  00000-0  23405-4 0  9997,2 56450  70.0002 210.4611 0002885 266.3638  93.7191 14.98326994 23003,6950.202,96.107,574.072,570.062,0.0
56450.0,STARLINK-5970,PAYLOAD,2023-10-09 02:44:34,14.98334044,0.0002924,70.0007,209.7873,262.6617,97.421,0.0001566,1.776e-05,0.0,0 STARLINK-5970,1 56450U 23064C   23282.11428265  .00001776  00000-0  15660-3 0  9993,2 56450  70.0007 209.7873 0002924 262.6617  97.4210 14.98334044 23401,6950.18,96.107,574.078,570.013,0.0
56450.0,STARLINK-5970,PAYLOAD,2023-10-09 12:21:22,14.98347275,0.0002671,70.0009,208.7771,279.259,80.8267,-0.0002913,-3.568e-05,0.0,0 STARLINK-5970,1 56450U 23064C   23282.51484487 -.00003568  00000-0 -29130-3 0  9995,2 56450  70.0009 208.7771 0002671 279.2590  80.8267 14.98347275 23107,6950.139,96.106,573.861,570.148,0.0
56450.0,STARLINK-5970,PAYLOAD,2023-10-09 21:58:11,14.98325009,0.0002367,70.0017,207.77,263.6352,96.4538,-5.9532e-05,-8.03e-06,0.0,0 STARLINK-5970,1 56450U 23064C   23282.91541512 -.00000803  00000-0 -59532-4 0  9991,2 56450  70.0017 207.7700 0002367 263.6352  96.4538 14.98325009 23163,6950.208,96.107,573.718,570.428,0.0
56450.0,STARLINK-5970,PAYLOAD,2023-10-10 02:46:35,14.98329203,0.0002613,70.0007,207.263,264.1779,95.9082,-7.1301e-05,-9.44e-06,0.0,0 STARLINK-5970,1 56450U 23064C   23283.11569246 -.00000944  00000-0 -71301-4 0  9992,2 56450  70.0007 207.2630 0002613 264.1779  95.9082 14.98329203 23553,6950.195,96.107,573.876,570.244,0.0
56450.0,STARLINK-5970,PAYLOAD,2023-10-10 04:22:43,14.98329357,0.0002754,70.0009,207.0948,264.4394,95.6451,7.0198e-06,-9e-08,0.0,0 STARLINK-5970,1 56450U 23064C   23283.18245000 -.00000009  00000-0  70198-5 0  9993,2 56450  70.0009 207.0948 0002754 264.4394  95.6451 14.98329357 23206,6950.195,96.107,573.974,570.146,0.0
56450.0,STARLINK-5970,PAYLOAD,2023-10-10 22:00:12,14.98323446,0.0002669,70.0018,205.2454,252.964,107.1227,-3.5049e-05,-5.11e-06,0.0,0 STARLINK-5970,1 56450U 23064C   23283.91681488 -.00000511  00000-0 -35049-4 0  9992,2 56450  70.0018 205.2454 0002669 252.9640 107.1227 14.98323446 23314,6950.213,96.107,573.933,570.223,0.0
56450.0,STARLINK-5970,PAYLOAD,2023-10-11 02:48:37,14.98326547,0.0002541,70.0017,204.7406,247.7184,112.3706,-9.4224e-05,-1.217e-05,0.0,0 STARLINK-5970,1 56450U 23064C   23284.11709548 -.00001217  00000-0 -94224-4 0  9997,2 56450  70.0017 204.7406 0002541 247.7184 112.3706 14.98326547 23706,6950.204,96.107,573.835,570.303,0.0
56450.0,STARLINK-5970,PAYLOAD,2023-10-11 12:25:25,14.98329921,0.00022,70.0024,203.7282,276.4698,83.621,-0.00011384,-1.451e-05,0.0,0 STARLINK-5970,1 56450U 23064C   23284.51765683 -.00001451  00000-0 -11384-3 0  9998,2 56450  70.0024 203.7282 0002200 276.4698  83.6210 14.98329921 23402,6950.193,96.107,573.587,570.529,0.0
56450.0,STARLINK-5970,PAYLOAD,2023-10-12 04:26:45,14.98333908,0.0002867,70.0005,202.0451,268.5879,91.4952,0.00014381,1.623e-05,0.0,0 STARLINK-5970,1 56450U 23064C   23285.18524757  .00001623  00000-0  14381-3 0  9996,2 56450  70.0005 202.0451 0002867 268.5879  91.4952 14.98333908 23863,6950.181,96.107,574.038,570.053,0.0
56450.0,STARLINK-5970,PAYLOAD,2023-10-12 12:27:26,14.98331496,0.000264,70.0012,201.203,272.0761,88.0096,4.3275e-05,4.23e-06,0.0,0 STARLINK-5970,1 56450U 23064C   23285.51905133  .00000423  00000-0  43275-4 0  9996,2 56450  70.0012 201.2030 0002640 272.0761  88.0096 14.98331496 23551,6950.188,96.107,573.888,570.218,0.0
